{"type": "FeatureCollection", "features": [ {"type": "Feature", "properties": {"norad_id": 43437, "name": "SENTINEL-3B", "group": "resource", "lat": 63.4684119198138, "lon": 43.95934345609196, "alt_km": 795.3949644491267, "timestamp": "2025-12-22T14:45:57.042544+00:00", "meta": {"OBJECT_NAME": "SENTINEL-3B", "OBJECT_ID": "2018-039A", "EPOCH": "2025-12-22T02:40:53.006304", "MEAN_MOTION": 14.26737543, "ECCENTRICITY": 0.00016188, "INCLINATION": 98.6254, "RA_OF_ASC_NODE": 61.1622, "ARG_OF_PERICENTER": 92.471, "MEAN_ANOMALY": 267.6656, "EPHEMERIS_TYPE": 0, "CLASSIFICATION_TYPE": "U", "NORAD_CAT_ID": 43437, "ELEMENT_SET_NO": 999, "REV_AT_EPOCH": 39887, "BSTAR": 7.7396733e-05, "MEAN_MOTION_DOT": 1.44e-06, "MEAN_MOTION_DDOT": 0}, "tle": {"line1": "1 43437U 18039A   25356.11172461  .00000144  00000+0  77397-4 0  9991", "line2": "2 43437  98.6254  61.1622 0001618  92.4710 267.6656 14.26737543398879"}}, "geometry": {"type": "Point", "coordinates": [43.95934345609196, 63.4684119198138]}}, {"type": "Feature", "properties": {"norad_id": 43461, "name": "GAOFEN-5 01", "group": "resource", "lat": 10.229484959241304, "lon": 141.28986165164946, "alt_km": 693.4580173552158, "timestamp": "2025-12-22T14:45:57.042554+00:00", "meta": {"OBJECT_NAME": "GAOFEN-5 01", "OBJECT_ID": "2018-043A", "EPOCH": "2025-12-21T21:32:55.023648", "MEAN_MOTION": 14.60419431, "ECCENTRICITY": 5.126e-05, "INCLINATION": 98.434, "RA_OF_ASC_NODE": 319.0256, "ARG_OF_PERICENTER": 275.9177, "MEAN_ANOMALY": 84.1964, "EPHEMERIS_TYPE": 0, "CLASSIFICATION_TYPE": "U", "NORAD_CAT_ID": 43461, "ELEMENT_SET_NO": 999, "REV_AT_EPOCH": 40581, "BSTAR": 0.00010046607, "MEAN_MOTION_DOT": 4.38e-06, "MEAN_MOTION_DDOT": 0}, "tle": {"line1": "1 43461U 18043A   25355.89785907  .00000438  00000+0  10047-3 0  9996", "line2": "2 43461  98.4340 319.0256 0000512 275.9177  84.1964 14.60419431405813"}}, "geometry": {"type": "Point", "coordinates": [141.28986165164946, 10.229484959241304]}}, {"type": "Feature", "properties": {"norad_id": 43484, "name": "GAOFEN-6", "group": "resource", "lat": 17.86156464506462, "lon": 58.01810201498847, "alt_km": 631.9789059558334, "timestamp": "2025-12-22T14:45:57.042564+00:00", "meta": {"OBJECT_NAME": "GAOFEN-6", "OBJECT_ID": "2018-048A", "EPOCH": "2025-12-22T06:33:10.008000", "MEAN_MOTION": 14.76580715, "ECCENTRICITY": 0.00127413, "INCLINATION": 97.8023, "RA_OF_ASC_NODE": 60.2199, "ARG_OF_PERICENTER": 35.4812, "MEAN_ANOMALY": 324.7243, "EPHEMERIS_TYPE": 0, "CLASSIFICATION_TYPE": "U", "NORAD_CAT_ID": 43484, "ELEMENT_SET_NO": 999, "REV_AT_EPOCH": 40728, "BSTAR": 7.5550802e-05, "MEAN_MOTION_DOT": 4.78e-06, "MEAN_MOTION_DDOT": 0}, "tle": {"line1": "1 43484U 18048A   25356.27303250  .00000478  00000+0  75551-4 0  9992", "line2": "2 43484  97.8023  60.2199 0012741  35.4812 324.7243 14.76580715407289"}}, "geometry": {"type": "Point", "coordinates": [58.01810201498847, 17.86156464506462]}}, {"type": "Feature", "properties": {"norad_id": 43585, "name": "GAOFEN-11 01", "group": "resource", "lat": -66.88236660432386, "lon": -137.6442261294402, "alt_km": 422.93208620260066, "timestamp": "2025-12-22T14:45:57.042574+00:00", "meta": {"OBJECT_NAME": "GAOFEN-11 01", "OBJECT_ID": "2018-063A", "EPOCH": "2025-12-22T05:56:57.124896", "MEAN_MOTION": 15.494787, "ECCENTRICITY": 0.00038818, "INCLINATION": 97.1548, "RA_OF_ASC_NODE": 59.1043, "ARG_OF_PERICENTER": 263.8034, "MEAN_ANOMALY": 96.2776, "EPHEMERIS_TYPE": 0, "CLASSIFICATION_TYPE": "U", "NORAD_CAT_ID": 43585, "ELEMENT_SET_NO": 999, "REV_AT_EPOCH": 41289, "BSTAR": 0.00039219975, "MEAN_MOTION_DOT": 0.00021523, "MEAN_MOTION_DDOT": 0}, "tle": {"line1": "1 43585U 18063A   25356.24788339  .00021523  00000+0  39220-3 0  9999", "line2": "2 43585  97.1548  59.1043 0003881 263.8034  96.2776 15.49478700412895"}}, "geometry": {"type": "Point", "coordinates": [-137.6442261294402, -66.88236660432386]}}, {"type": "Feature", "properties": {"norad_id": 43613, "name": "ICESAT-2", "group": "resource", "lat": -47.018273830189536, "lon": -114.44404095036404, "alt_km": 489.9285851359773, "timestamp": "2025-12-22T14:45:57.042585+00:00", "meta": {"OBJECT_NAME": "ICESAT-2", "OBJECT_ID": "2018-070A", "EPOCH": "2025-12-22T05:32:33.181440", "MEAN_MOTION": 15.28272599, "ECCENTRICITY": 0.00030444, "INCLINATION": 92.0042, "RA_OF_ASC_NODE": 243.2988, "ARG_OF_PERICENTER": 120.232, "MEAN_ANOMALY": 239.9231, "EPHEMERIS_TYPE": 0, "CLASSIFICATION_TYPE": "U", "NORAD_CAT_ID": 43613, "ELEMENT_SET_NO": 999, "REV_AT_EPOCH": 40543, "BSTAR": 0.00051776974, "MEAN_MOTION_DOT": 0.00014264, "MEAN_MOTION_DDOT": 0}, "tle": {"line1": "1 43613U 18070A   25356.23093960  .00014264  00000+0  51777-3 0  9992", "line2": "2 43613  92.0042 243.2988 0003044 120.2320 239.9231 15.28272599405438"}}, "geometry": {"type": "Point", "coordinates": [-114.44404095036404, -47.018273830189536]}}, {"type": "Feature", "properties": {"norad_id": 43719, "name": "HYSIS", "group": "resource", "lat": 51.55824823774851, "lon": -110.23857868301438, "alt_km": 628.6084225840714, "timestamp": "2025-12-22T14:45:57.042594+00:00", "meta": {"OBJECT_NAME": "HYSIS", "OBJECT_ID": "2018-096A", "EPOCH": "2025-12-22T06:04:12.860832", "MEAN_MOTION": 14.78666575, "ECCENTRICITY": 9.551e-05, "INCLINATION": 98.0089, "RA_OF_ASC_NODE": 59.1842, "ARG_OF_PERICENTER": 52.6497, "MEAN_ANOMALY": 307.4801, "EPHEMERIS_TYPE": 0, "CLASSIFICATION_TYPE": "U", "NORAD_CAT_ID": 43719, "ELEMENT_SET_NO": 999, "REV_AT_EPOCH": 38127, "BSTAR": 6.0994682e-05, "MEAN_MOTION_DOT": 3.95e-06, "MEAN_MOTION_DDOT": 0}, "tle": {"line1": "1 43719U 18096A   25356.25292663  .00000395  00000+0  60995-4 0  9993", "line2": "2 43719  98.0089  59.1842 0000955  52.6497 307.4801 14.78666575381270"}}, "geometry": {"type": "Point", "coordinates": [-110.23857868301438, 51.55824823774851]}}, {"type": "Feature", "properties": {"norad_id": 43783, "name": "KAZSTSAT", "group": "resource", "lat": 18.145947819113186, "lon": 28.916023496364044, "alt_km": 569.3449423420006, "timestamp": "2025-12-22T14:45:57.042605+00:00", "meta": {"OBJECT_NAME": "KAZSTSAT", "OBJECT_ID": "2018-099AB", "EPOCH": "2025-12-21T01:50:44.888352", "MEAN_MOTION": 14.99364891, "ECCENTRICITY": 0.00060238, "INCLINATION": 97.4527, "RA_OF_ASC_NODE": 29.903, "ARG_OF_PERICENTER": 292.687, "MEAN_ANOMALY": 67.3717, "EPHEMERIS_TYPE": 0, "CLASSIFICATION_TYPE": "U", "NORAD_CAT_ID": 43783, "ELEMENT_SET_NO": 999, "REV_AT_EPOCH": 38461, "BSTAR": 1.8043656e-05, "MEAN_MOTION_DOT": 1.65e-06, "MEAN_MOTION_DDOT": 0}, "tle": {"line1": "1 43783U 18099AB  25355.07690843  .00000165  00000+0  18044-4 0  9991", "line2": "2 43783  97.4527  29.9030 0006023 292.6870  67.3717 14.99364891384616"}}, "geometry": {"type": "Point", "coordinates": [28.916023496364044, 18.145947819113186]}}, {"type": "Feature", "properties": {"norad_id": 43831, "name": "SAUDISAT 5A", "group": "resource", "lat": -72.08813207848158, "lon": 80.09792679347386, "alt_km": 499.5532515789537, "timestamp": "2025-12-22T14:45:57.042615+00:00", "meta": {"OBJECT_NAME": "SAUDISAT 5A", "OBJECT_ID": "2018-102A", "EPOCH": "2025-12-22T07:13:04.976256", "MEAN_MOTION": 15.25767359, "ECCENTRICITY": 0.00112653, "INCLINATION": 97.3337, "RA_OF_ASC_NODE": 56.3074, "ARG_OF_PERICENTER": 46.6716, "MEAN_ANOMALY": 313.546, "EPHEMERIS_TYPE": 0, "CLASSIFICATION_TYPE": "U", "NORAD_CAT_ID": 43831, "ELEMENT_SET_NO": 999, "REV_AT_EPOCH": 38868, "BSTAR": 0.00025894682, "MEAN_MOTION_DOT": 6.552e-05, "MEAN_MOTION_DDOT": 0}, "tle": {"line1": "1 43831U 18102A   25356.30075204  .00006552  00000+0  25895-3 0  9992", "line2": "2 43831  97.3337  56.3074 0011265  46.6716 313.5460 15.25767359388688"}}, "geometry": {"type": "Point", "coordinates": [80.09792679347386, -72.08813207848158]}}, {"type": "Feature", "properties": {"norad_id": 43833, "name": "SAUDISAT 5B", "group": "resource", "lat": -8.95433694644155, "lon": 60.53642896206568, "alt_km": 487.0652433459627, "timestamp": "2025-12-22T14:45:57.042625+00:00", "meta": {"OBJECT_NAME": "SAUDISAT 5B", "OBJECT_ID": "2018-102C", "EPOCH": "2025-12-22T06:56:13.581312", "MEAN_MOTION": 15.26115001, "ECCENTRICITY": 0.00120123, "INCLINATION": 97.3433, "RA_OF_ASC_NODE": 59.0516, "ARG_OF_PERICENTER": 48.8361, "MEAN_ANOMALY": 311.3911, "EPHEMERIS_TYPE": 0, "CLASSIFICATION_TYPE": "U", "NORAD_CAT_ID": 43833, "ELEMENT_SET_NO": 999, "REV_AT_EPOCH": 38879, "BSTAR": 0.00024178451, "MEAN_MOTION_DOT": 6.178e-05, "MEAN_MOTION_DDOT": 0}, "tle": {"line1": "1 43833U 18102C   25356.28904608  .00006178  00000+0  24178-3 0  9997", "line2": "2 43833  97.3433  59.0516 0012012  48.8361 311.3911 15.26115001388790"}}, "geometry": {"type": "Point", "coordinates": [60.53642896206568, -8.95433694644155]}}, {"type": "Feature", "properties": {"norad_id": 44622, "name": "GAOFEN-10R", "group": "resource", "lat": -19.296271923478887, "lon": 121.32783159501622, "alt_km": 630.5942613384059, "timestamp": "2025-12-22T14:45:57.042635+00:00", "meta": {"OBJECT_NAME": "GAOFEN-10R", "OBJECT_ID": "2019-066A", "EPOCH": "2025-12-22T07:23:29.149728", "MEAN_MOTION": 14.82823016, "ECCENTRICITY": 0.00072168, "INCLINATION": 98.0291, "RA_OF_ASC_NODE": 303.8521, "ARG_OF_PERICENTER": 13.8747, "MEAN_ANOMALY": 346.2663, "EPHEMERIS_TYPE": 0, "CLASSIFICATION_TYPE": "U", "NORAD_CAT_ID": 44622, "ELEMENT_SET_NO": 999, "REV_AT_EPOCH": 33616, "BSTAR": 0.00019083871, "MEAN_MOTION_DOT": 1.49e-05, "MEAN_MOTION_DDOT": 0}, "tle": {"line1": "1 44622U 19066A   25356.30797627  .00001490  00000+0  19084-3 0  9990", "line2": "2 44622  98.0291 303.8521 0007216  13.8747 346.2663 14.82823016336161"}}, "geometry": {"type": "Point", "coordinates": [121.32783159501622, -19.296271923478887]}}]}